[{"OBJECT_NAME":"STARLINK-35048","OBJECT_ID":"2025-184P","EPOCH":"2026-03-20T03:29:52.749888","MEAN_MOTION":15.05664273,"ECCENTRICITY":7.569e-5,"INCLINATION":97.6024,"RA_OF_ASC_NODE":132.9604,"ARG_OF_PERICENTER":114.1407,"MEAN_ANOMALY":245.9899,"EPHEMERIS_TYPE":0,"CLASSIFICATION_TYPE":"U","NORAD_CAT_ID":65286,"ELEMENT_SET_NO":999,"REV_AT_EPOCH":3282,"BSTAR":0.00048526088,"MEAN_MOTION_DOT":6.951e-5,"MEAN_MOTION_DDOT":0},{"OBJECT_NAME":"STARLINK-35007","OBJECT_ID":"2025-184Q","EPOCH":"2026-03-20T03:53:47.853024","MEAN_MOTION":15.05643532,"ECCENTRICITY":3.42e-5,"INCLINATION":97.6021,"RA_OF_ASC_NODE":132.9363,"ARG_OF_PERICENTER":117.0298,"MEAN_ANOMALY":243.0964,"EPHEMERIS_TYPE":0,"CLASSIFICATION_TYPE":"U","NORAD_CAT_ID":65287,"ELEMENT_SET_NO":999,"REV_AT_EPOCH":3281,"BSTAR":0.00040921764,"MEAN_MOTION_DOT":5.848e-5,"MEAN_MOTION_DDOT":0},{"OBJECT_NAME":"STARLINK-35018","OBJECT_ID":"2025-184R","EPOCH":"2026-03-20T01:34:14.256192","MEAN_MOTION":15.05657548,"ECCENTRICITY":0.00017758,"INCLINATION":97.6031,"RA_OF_ASC_NODE":132.9143,"ARG_OF_PERICENTER":93.6522,"MEAN_ANOMALY":266.4908,"EPHEMERIS_TYPE":0,"CLASSIFICATION_TYPE":"U","NORAD_CAT_ID":65288,"ELEMENT_SET_NO":999,"REV_AT_EPOCH":3286,"BSTAR":0.00026831791,"MEAN_MOTION_DOT":3.814e-5,"MEAN_MOTION_DDOT":0},{"OBJECT_NAME":"STARLINK-34845","OBJECT_ID":"2025-184S","EPOCH":"2026-03-20T02:57:59.103072","MEAN_MOTION":15.05654512,"ECCENTRICITY":0.00010031,"INCLINATION":97.6017,"RA_OF_ASC_NODE":132.9881,"ARG_OF_PERICENTER":94.685,"MEAN_ANOMALY":265.4492,"EPHEMERIS_TYPE":0,"CLASSIFICATION_TYPE":"U","NORAD_CAT_ID":65289,"ELEMENT_SET_NO":999,"REV_AT_EPOCH":3287,"BSTAR":0.00029709868,"MEAN_MOTION_DOT":4.229e-5,"MEAN_MOTION_DDOT":0},{"OBJECT_NAME":"STARLINK-34984","OBJECT_ID":"2025-184T","EPOCH":"2026-03-20T01:42:12.611520","MEAN_MOTION":15.05655974,"ECCENTRICITY":0.00011714,"INCLINATION":97.6029,"RA_OF_ASC_NODE":132.9062,"ARG_OF_PERICENTER":96.3699,"MEAN_ANOMALY":263.7661,"EPHEMERIS_TYPE":0,"CLASSIFICATION_TYPE":"U","NORAD_CAT_ID":65290,"ELEMENT_SET_NO":999,"REV_AT_EPOCH":3286,"BSTAR":0.00023351104,"MEAN_MOTION_DOT":3.311e-5,"MEAN_MOTION_DDOT":0},{"OBJECT_NAME":"STARLINK-35002","OBJECT_ID":"2025-184U","EPOCH":"2026-03-20T02:34:02.245152","MEAN_MOTION":15.05674759,"ECCENTRICITY":0.00012801,"INCLINATION":97.6004,"RA_OF_ASC_NODE":132.8531,"ARG_OF_PERICENTER":166.4306,"MEAN_ANOMALY":193.6955,"EPHEMERIS_TYPE":0,"CLASSIFICATION_TYPE":"U","NORAD_CAT_ID":65291,"ELEMENT_SET_NO":999,"REV_AT_EPOCH":3286,"BSTAR":0.00050033501,"MEAN_MOTION_DOT":7.171e-5,"MEAN_MOTION_DDOT":0},{"OBJECT_NAME":"STARLINK-35017","OBJECT_ID":"2025-184V","EPOCH":"2026-03-20T02:50:00.153312","MEAN_MOTION":15.05661006,"ECCENTRICITY":7.656e-5,"INCLINATION":97.6007,"RA_OF_ASC_NODE":132.9951,"ARG_OF_PERICENTER":123.9146,"MEAN_ANOMALY":236.2154,"EPHEMERIS_TYPE":0,"CLASSIFICATION_TYPE":"U","NORAD_CAT_ID":65292,"ELEMENT_SET_NO":999,"REV_AT_EPOCH":3282,"BSTAR":0.00035643298,"MEAN_MOTION_DOT":5.087e-5,"MEAN_MOTION_DDOT":0},{"OBJECT_NAME":"STARLINK-34951","OBJECT_ID":"2025-184W","EPOCH":"2026-03-20T03:33:50.372352","MEAN_MOTION":15.05646281,"ECCENTRICITY":0.00011149,"INCLINATION":97.6014,"RA_OF_ASC_NODE":132.956,"ARG_OF_PERICENTER":88.9799,"MEAN_ANOMALY":271.1555,"EPHEMERIS_TYPE":0,"CLASSIFICATION_TYPE":"U","NORAD_CAT_ID":65293,"ELEMENT_SET_NO":999,"REV_AT_EPOCH":3287,"BSTAR":-0.00018933849,"MEAN_MOTION_DOT":-2.791e-5,"MEAN_MOTION_DDOT":0},{"OBJECT_NAME":"STARLINK-34613","OBJECT_ID":"2025-184X","EPOCH":"2026-03-20T03:49:48.047232","MEAN_MOTION":15.05654972,"ECCENTRICITY":6.684e-5,"INCLINATION":97.6027,"RA_OF_ASC_NODE":132.9408,"ARG_OF_PERICENTER":102.7213,"MEAN_ANOMALY":257.4089,"EPHEMERIS_TYPE":0,"CLASSIFICATION_TYPE":"U","NORAD_CAT_ID":65294,"ELEMENT_SET_NO":999,"REV_AT_EPOCH":3287,"BSTAR":0.00018357837,"MEAN_MOTION_DOT":2.589e-5,"MEAN_MOTION_DDOT":0},{"OBJECT_NAME":"STARLINK-34834","OBJECT_ID":"2025-184Y","EPOCH":"2026-03-20T02:42:00.585792","MEAN_MOTION":15.05662071,"ECCENTRICITY":0.00010954,"INCLINATION":97.6003,"RA_OF_ASC_NODE":132.8485,"ARG_OF_PERICENTER":95.4043,"MEAN_ANOMALY":264.7308,"EPHEMERIS_TYPE":0,"CLASSIFICATION_TYPE":"U","NORAD_CAT_ID":65295,"ELEMENT_SET_NO":999,"REV_AT_EPOCH":3286,"BSTAR":0.00045325068,"MEAN_MOTION_DOT":6.487e-5,"MEAN_MOTION_DDOT":0},{"OBJECT_NAME":"STARLINK-34872","OBJECT_ID":"2025-184Z","EPOCH":"2026-03-20T02:26:03.645312","MEAN_MOTION":15.05657752,"ECCENTRICITY":6.153e-5,"INCLINATION":97.6018,"RA_OF_ASC_NODE":132.8628,"ARG_OF_PERICENTER":124.7633,"MEAN_ANOMALY":235.3652,"EPHEMERIS_TYPE":0,"CLASSIFICATION_TYPE":"U","NORAD_CAT_ID":65296,"ELEMENT_SET_NO":999,"REV_AT_EPOCH":3286,"BSTAR":0.00034095278,"MEAN_MOTION_DOT":4.863e-5,"MEAN_MOTION_DDOT":0},{"OBJECT_NAME":"STARLINK-34899","OBJECT_ID":"2025-189A","EPOCH":"2026-03-20T05:54:43.854624","MEAN_MOTION":15.30192927,"ECCENTRICITY":0.00010905,"INCLINATION":53.1561,"RA_OF_ASC_NODE":157.6495,"ARG_OF_PERICENTER":78.2032,"MEAN_ANOMALY":281.9091,"EPHEMERIS_TYPE":0,"CLASSIFICATION_TYPE":"U","NORAD_CAT_ID":65323,"ELEMENT_SET_NO":999,"REV_AT_EPOCH":3272,"BSTAR":0.00053267631,"MEAN_MOTION_DOT":0.00015447,"MEAN_MOTION_DDOT":0},{"OBJECT_NAME":"STARLINK-34196","OBJECT_ID":"2025-189B","EPOCH":"2026-03-20T05:34:58.238400","MEAN_MOTION":15.30210037,"ECCENTRICITY":0.00011708,"INCLINATION":53.1569,"RA_OF_ASC_NODE":157.5819,"ARG_OF_PERICENTER":85.1828,"MEAN_ANOMALY":274.9306,"EPHEMERIS_TYPE":0,"CLASSIFICATION_TYPE":"U","NORAD_CAT_ID":65324,"ELEMENT_SET_NO":999,"REV_AT_EPOCH":3267,"BSTAR":0.00038250679,"MEAN_MOTION_DOT":0.0001099,"MEAN_MOTION_DDOT":0},{"OBJECT_NAME":"STARLINK-34911","OBJECT_ID":"2025-189C","EPOCH":"2026-03-20T04:57:08.685792","MEAN_MOTION":15.30205228,"ECCENTRICITY":0.00014546,"INCLINATION":53.1591,"RA_OF_ASC_NODE":158.1292,"ARG_OF_PERICENTER":92.4699,"MEAN_ANOMALY":267.6469,"EPHEMERIS_TYPE":0,"CLASSIFICATION_TYPE":"U","NORAD_CAT_ID":65325,"ELEMENT_SET_NO":999,"REV_AT_EPOCH":3271,"BSTAR":0.00074238297,"MEAN_MOTION_DOT":0.00021696,"MEAN_MOTION_DDOT":0},{"OBJECT_NAME":"STARLINK-34902","OBJECT_ID":"2025-189D","EPOCH":"2026-03-20T04:40:25.788288","MEAN_MOTION":15.30203125,"ECCENTRICITY":0.00013712,"INCLINATION":53.1581,"RA_OF_ASC_NODE":158.0571,"ARG_OF_PERICENTER":45.7864,"MEAN_ANOMALY":314.3249,"EPHEMERIS_TYPE":0,"CLASSIFICATION_TYPE":"U","NORAD_CAT_ID":65326,"ELEMENT_SET_NO":999,"REV_AT_EPOCH":3271,"BSTAR":0.00058394726,"MEAN_MOTION_DOT":0.00016977,"MEAN_MOTION_DDOT":0},{"OBJECT_NAME":"STARLINK-34880","OBJECT_ID":"2025-189E","EPOCH":"2026-03-20T04:43:28.036992","MEAN_MOTION":15.30209845,"ECCENTRICITY":7.949e-5,"INCLINATION":53.1616,"RA_OF_ASC_NODE":158.0734,"ARG_OF_PERICENTER":103.3398,"MEAN_ANOMALY":256.7691,"EPHEMERIS_TYPE":0,"CLASSIFICATION_TYPE":"U","NORAD_CAT_ID":65327,"ELEMENT_SET_NO":999,"REV_AT_EPOCH":3271,"BSTAR":0.00044871126,"MEAN_MOTION_DOT":0.00012958,"MEAN_MOTION_DDOT":0}]
