STARLINK-35048          
1 65286U 25184P   26079.14574942  .00006951  00000+0  48526-3 0  9995
2 65286  97.6024 132.9604 0000756 114.1407 245.9899 15.05664273 32828
STARLINK-35007          
1 65287U 25184Q   26079.16235941  .00005848  00000+0  40922-3 0  9997
2 65287  97.6021 132.9363 0000342 117.0298 243.0964 15.05643532 32815
STARLINK-35018          
1 65288U 25184R   26079.06544278  .00003814  00000+0  26832-3 0  9998
2 65288  97.6031 132.9143 0001775  93.6522 266.4908 15.05657548 32867
STARLINK-34845          
1 65289U 25184S   26079.12360073  .00004229  00000+0  29710-3 0  9994
2 65289  97.6017 132.9881 0001003  94.6850 265.4492 15.05654512 32876
STARLINK-34984          
1 65290U 25184T   26079.07097930  .00003311  00000+0  23351-3 0  9995
2 65290  97.6029 132.9062 0001171  96.3699 263.7661 15.05655974 32869
STARLINK-35002          
1 65291U 25184U   26079.10697043  .00007171  00000+0  50034-3 0  9997
2 65291  97.6004 132.8531 0001280 166.4306 193.6955 15.05674759 32867
STARLINK-35017          
1 65292U 25184V   26079.11805733  .00005087  00000+0  35643-3 0  9999
2 65292  97.6007 132.9951 0000765 123.9146 236.2154 15.05661006 32827
STARLINK-34951          
1 65293U 25184W   26079.14849968 -.00002791  00000+0 -18934-3 0  9996
2 65293  97.6014 132.9560 0001114  88.9799 271.1555 15.05646281 32871
STARLINK-34613          
1 65294U 25184X   26079.15958388  .00002589  00000+0  18358-3 0  9998
2 65294  97.6027 132.9408 0000668 102.7213 257.4089 15.05654972 32871
STARLINK-34834          
1 65295U 25184Y   26079.11250678  .00006487  00000+0  45325-3 0  9997
2 65295  97.6003 132.8485 0001095  95.4043 264.7308 15.05662071 32867
STARLINK-34872          
1 65296U 25184Z   26079.10143108  .00004863  00000+0  34095-3 0  9994
2 65296  97.6018 132.8628 0000615 124.7633 235.3652 15.05657752 32867
STARLINK-34899          
1 65323U 25189A   26079.24634091  .00015447  00000+0  53268-3 0  9994
2 65323  53.1561 157.6495 0001090  78.2032 281.9091 15.30192927 32724
STARLINK-34196          
1 65324U 25189B   26079.23261850  .00010990  00000+0  38251-3 0  9996
2 65324  53.1569 157.5819 0001170  85.1828 274.9306 15.30210037 32679
STARLINK-34911          
1 65325U 25189C   26079.20635053  .00021696  00000+0  74238-3 0  9994
2 65325  53.1591 158.1292 0001454  92.4699 267.6469 15.30205228 32719
STARLINK-34902          
1 65326U 25189D   26079.19474292  .00016977  00000+0  58395-3 0  9991
2 65326  53.1581 158.0571 0001371  45.7864 314.3249 15.30203125 32711
STARLINK-34880          
1 65327U 25189E   26079.19685228  .00012958  00000+0  44871-3 0  9994
2 65327  53.1616 158.0734 0000794 103.3398 256.7691 15.30209845 32718
